{
  "type": "FeatureCollection",
  "features": [
    {
      "type": "Feature",
      "properties": {
        "norad_id": 33835,
        "name": "COSMOS 2251 DEB",
        "group": "cosmos-2251-debris",
        "lat": -65.23045448488669,
        "lon": -24.671568217909808,
        "alt_km": 684.8540060200039,
        "timestamp": "2025-12-04T09:47:37.912491+00:00",
        "meta_object_name": "COSMOS 2251 DEB",
        "meta_object_id": "1993-036CC",
        "meta_epoch": "2025-12-02T19:28:26.300928",
        "meta_mean_motion": 14.62061225,
        "meta_eccentricity": 0.00557211,
        "meta_inclination": 74.0555,
        "meta_ra_of_asc_node": 120.095,
        "meta_arg_of_pericenter": 176.3218,
        "meta_mean_anomaly": 313.2995,
        "meta_ephemeris_type": 0,
        "meta_classification_type": "U",
        "meta_norad_cat_id": 33835,
        "meta_element_set_no": 999,
        "meta_rev_at_epoch": 88644,
        "meta_bstar": 0.0016115926,
        "meta_mean_motion_dot": 8.252e-05,
        "meta_mean_motion_ddot": 0,
        "tle_line1": "1 33835U 93036CC  25336.81141552  .00008252  00000+0  16116-2 0  9992",
        "tle_line2": "2 33835  74.0555 120.0950 0055721 176.3218 313.2995 14.62061225886446"
      },
      "geometry": {
        "type": "Point",
        "coordinates": [
          -24.671568217909808,
          -65.23045448488669
        ]
      }
    },
    {
      "type": "Feature",
      "properties": {
        "norad_id": 33836,
        "name": "COSMOS 2251 DEB",
        "group": "cosmos-2251-debris",
        "lat": 60.720411487931386,
        "lon": 64.60159036116852,
        "alt_km": 610.0631952820377,
        "timestamp": "2025-12-04T09:47:37.912502+00:00",
        "meta_object_name": "COSMOS 2251 DEB",
        "meta_object_id": "1993-036CD",
        "meta_epoch": "2025-12-03T22:13:35.406336",
        "meta_mean_motion": 14.79335442,
        "meta_eccentricity": 0.00224276,
        "meta_inclination": 73.9976,
        "meta_ra_of_asc_node": 276.3373,
        "meta_arg_of_pericenter": 132.7154,
        "meta_mean_anomaly": 296.4113,
        "meta_ephemeris_type": 0,
        "meta_classification_type": "U",
        "meta_norad_cat_id": 33836,
        "meta_element_set_no": 999,
        "meta_rev_at_epoch": 63958,
        "meta_bstar": 0.0026773859,
        "meta_mean_motion_dot": 0.00020051,
        "meta_mean_motion_ddot": 0,
        "tle_line1": "1 33836U 93036CD  25337.92610424  .00020051  00000+0  26774-2 0  9997",
        "tle_line2": "2 33836  73.9976 276.3373 0022427 132.7154 296.4113 14.79335442639586"
      },
      "geometry": {
        "type": "Point",
        "coordinates": [
          64.60159036116852,
          60.720411487931386
        ]
      }
    },
    {
      "type": "Feature",
      "properties": {
        "norad_id": 33837,
        "name": "COSMOS 2251 DEB",
        "group": "cosmos-2251-debris",
        "lat": -53.52134137676408,
        "lon": -85.90212908500786,
        "alt_km": 716.4747893662343,
        "timestamp": "2025-12-04T09:47:37.912512+00:00",
        "meta_object_name": "COSMOS 2251 DEB",
        "meta_object_id": "1993-036CE",
        "meta_epoch": "2025-12-03T07:52:36.048000",
        "meta_mean_motion": 14.50667168,
        "meta_eccentricity": 0.0035633,
        "meta_inclination": 74.0128,
        "meta_ra_of_asc_node": 73.3158,
        "meta_arg_of_pericenter": 296.5894,
        "meta_mean_anomaly": 63.1617,
        "meta_ephemeris_type": 0,
        "meta_classification_type": "U",
        "meta_norad_cat_id": 33837,
        "meta_element_set_no": 999,
        "meta_rev_at_epoch": 88659,
        "meta_bstar": 0.00042701,
        "meta_mean_motion_dot": 1.662e-05,
        "meta_mean_motion_ddot": 0,
        "tle_line1": "1 33837U 93036CE  25337.32819500  .00001662  00000+0  42701-3 0  9994",
        "tle_line2": "2 33837  74.0128  73.3158 0035633 296.5894  63.1617 14.50667168886592"
      },
      "geometry": {
        "type": "Point",
        "coordinates": [
          -85.90212908500786,
          -53.52134137676408
        ]
      }
    },
    {
      "type": "Feature",
      "properties": {
        "norad_id": 33838,
        "name": "COSMOS 2251 DEB",
        "group": "cosmos-2251-debris",
        "lat": 0.3443232585099698,
        "lon": -14.682531572217068,
        "alt_km": 739.940689039171,
        "timestamp": "2025-12-04T09:47:37.912521+00:00",
        "meta_object_name": "COSMOS 2251 DEB",
        "meta_object_id": "1993-036CF",
        "meta_epoch": "2025-12-03T23:35:03.494112",
        "meta_mean_motion": 14.48322939,
        "meta_eccentricity": 0.0027387,
        "meta_inclination": 74.0356,
        "meta_ra_of_asc_node": 166.2124,
        "meta_arg_of_pericenter": 289.2516,
        "meta_mean_anomaly": 193.4611,
        "meta_ephemeris_type": 0,
        "meta_classification_type": "U",
        "meta_norad_cat_id": 33838,
        "meta_element_set_no": 999,
        "meta_rev_at_epoch": 88442,
        "meta_bstar": 0.00066498527,
        "meta_mean_motion_dot": 2.471e-05,
        "meta_mean_motion_ddot": 0,
        "tle_line1": "1 33838U 93036CF  25337.98267933  .00002471  00000+0  66499-3 0  9993",
        "tle_line2": "2 33838  74.0356 166.2124 0027387 289.2516 193.4611 14.48322939884420"
      },
      "geometry": {
        "type": "Point",
        "coordinates": [
          -14.682531572217068,
          0.3443232585099698
        ]
      }
    },
    {
      "type": "Feature",
      "properties": {
        "norad_id": 33839,
        "name": "COSMOS 2251 DEB",
        "group": "cosmos-2251-debris",
        "lat": -14.313201582640101,
        "lon": -141.6982411758343,
        "alt_km": 624.1886264830282,
        "timestamp": "2025-12-04T09:47:37.912532+00:00",
        "meta_object_name": "COSMOS 2251 DEB",
        "meta_object_id": "1993-036CG",
        "meta_epoch": "2025-12-03T03:25:22.042272",
        "meta_mean_motion": 14.64373974,
        "meta_eccentricity": 0.00848223,
        "meta_inclination": 74.0399,
        "meta_ra_of_asc_node": 224.9194,
        "meta_arg_of_pericenter": 339.2319,
        "meta_mean_anomaly": 177.3871,
        "meta_ephemeris_type": 0,
        "meta_classification_type": "U",
        "meta_norad_cat_id": 33839,
        "meta_element_set_no": 999,
        "meta_rev_at_epoch": 89439,
        "meta_bstar": 0.00040044968,
        "meta_mean_motion_dot": 2.197e-05,
        "meta_mean_motion_ddot": 0,
        "tle_line1": "1 33839U 93036CG  25337.14261623  .00002197  00000+0  40045-3 0  9996",
        "tle_line2": "2 33839  74.0399 224.9194 0084822 339.2319 177.3871 14.64373974894390"
      },
      "geometry": {
        "type": "Point",
        "coordinates": [
          -141.6982411758343,
          -14.313201582640101
        ]
      }
    },
    {
      "type": "Feature",
      "properties": {
        "norad_id": 33841,
        "name": "COSMOS 2251 DEB",
        "group": "cosmos-2251-debris",
        "lat": 27.208080326053473,
        "lon": 104.92055953713212,
        "alt_km": 774.4850365034727,
        "timestamp": "2025-12-04T09:47:37.912542+00:00",
        "meta_object_name": "COSMOS 2251 DEB",
        "meta_object_id": "1993-036CJ",
        "meta_epoch": "2025-12-03T08:36:31.686048",
        "meta_mean_motion": 14.37836538,
        "meta_eccentricity": 0.0020111,
        "meta_inclination": 74.0373,
        "meta_ra_of_asc_node": 295.3137,
        "meta_arg_of_pericenter": 17.8924,
        "meta_mean_anomaly": 103.8361,
        "meta_ephemeris_type": 0,
        "meta_classification_type": "U",
        "meta_norad_cat_id": 33841,
        "meta_element_set_no": 999,
        "meta_rev_at_epoch": 87979,
        "meta_bstar": 0.00037499,
        "meta_mean_motion_dot": 1.107e-05,
        "meta_mean_motion_ddot": 0,
        "tle_line1": "1 33841U 93036CJ  25337.35870007  .00001107  00000+0  37499-3 0  9993",
        "tle_line2": "2 33841  74.0373 295.3137 0020111  17.8924 103.8361 14.37836538879791"
      },
      "geometry": {
        "type": "Point",
        "coordinates": [
          104.92055953713212,
          27.208080326053473
        ]
      }
    },
    {
      "type": "Feature",
      "properties": {
        "norad_id": 33842,
        "name": "COSMOS 2251 DEB",
        "group": "cosmos-2251-debris",
        "lat": -71.57720827891322,
        "lon": 114.37818470218555,
        "alt_km": 752.6395354967872,
        "timestamp": "2025-12-04T09:47:37.912552+00:00",
        "meta_object_name": "COSMOS 2251 DEB",
        "meta_object_id": "1993-036CK",
        "meta_epoch": "2025-12-03T17:36:28.222272",
        "meta_mean_motion": 14.4266536,
        "meta_eccentricity": 0.00469928,
        "meta_inclination": 74.0333,
        "meta_ra_of_asc_node": 236.3672,
        "meta_arg_of_pericenter": 345.5071,
        "meta_mean_anomaly": 14.4734,
        "meta_ephemeris_type": 0,
        "meta_classification_type": "U",
        "meta_norad_cat_id": 33842,
        "meta_element_set_no": 999,
        "meta_rev_at_epoch": 88207,
        "meta_bstar": 0.00049077437,
        "meta_mean_motion_dot": 1.627e-05,
        "meta_mean_motion_ddot": 0,
        "tle_line1": "1 33842U 93036CK  25337.73365998  .00001627  00000+0  49077-3 0  9996",
        "tle_line2": "2 33842  74.0333 236.3672 0046992 345.5071  14.4734 14.42665360882071"
      },
      "geometry": {
        "type": "Point",
        "coordinates": [
          114.37818470218555,
          -71.57720827891322
        ]
      }
    }
  ]
}